[{"OBJECT_NAME":"STARLINK-30435","OBJECT_ID":"2023-141C","EPOCH":"2026-03-09T21:00:22.223808","MEAN_MOTION":15.30193724,"ECCENTRICITY":0.00012901,"INCLINATION":53.1606,"RA_OF_ASC_NODE":283.2961,"ARG_OF_PERICENTER":91.9338,"MEAN_ANOMALY":268.181,"EPHEMERIS_TYPE":0,"CLASSIFICATION_TYPE":"U","NORAD_CAT_ID":57842,"ELEMENT_SET_NO":999,"REV_AT_EPOCH":14035,"BSTAR":3.963892e-5,"MEAN_MOTION_DOT":8.15e-6,"MEAN_MOTION_DDOT":0},{"OBJECT_NAME":"PEGASUS DEB","OBJECT_ID":"1994-029AG","EPOCH":"2026-03-09T11:16:42.963744","MEAN_MOTION":15.37636263,"ECCENTRICITY":0.0031206,"INCLINATION":82.0362,"RA_OF_ASC_NODE":86.2933,"ARG_OF_PERICENTER":155.6019,"MEAN_ANOMALY":204.671,"EPHEMERIS_TYPE":0,"CLASSIFICATION_TYPE":"U","NORAD_CAT_ID":23986,"ELEMENT_SET_NO":999,"REV_AT_EPOCH":61542,"BSTAR":0.00061808813,"MEAN_MOTION_DOT":0.00023279,"MEAN_MOTION_DDOT":0}]
